{
  "type": "FeatureCollection",
  "features": [
    {
      "type": "Feature",
      "properties": {
        "norad_id": 31088,
        "name": "FENGYUN 1C DEB",
        "group": "fengyun-1c-debris",
        "lat": 8.647166147646697,
        "lon": -126.41857590483922,
        "alt_km": 808.8539126714568,
        "timestamp": "2025-12-17T13:48:37.834964+00:00",
        "meta_object_name": "FENGYUN 1C DEB",
        "meta_object_id": "1999-025BGJ",
        "meta_epoch": "2025-12-17T03:04:07.993920",
        "meta_mean_motion": 14.28732823,
        "meta_eccentricity": 0.00282519,
        "meta_inclination": 99.4119,
        "meta_ra_of_asc_node": 51.6535,
        "meta_arg_of_pericenter": 48.7759,
        "meta_mean_anomaly": 341.3145,
        "meta_ephemeris_type": 0,
        "meta_classification_type": "U",
        "meta_norad_cat_id": 31088,
        "meta_element_set_no": 999,
        "meta_rev_at_epoch": 96612,
        "meta_bstar": 0.0012709274,
        "meta_mean_motion_dot": 3.163e-05,
        "meta_mean_motion_ddot": 0,
        "tle_line1": "1 31088U 99025BGJ 25351.12787030  .00003163  00000+0  12709-2 0  9992",
        "tle_line2": "2 31088  99.4119  51.6535 0028251  48.7759 341.3145 14.28732823966123"
      },
      "geometry": {
        "type": "Point",
        "coordinates": [
          -126.41857590483922,
          8.647166147646697
        ]
      }
    },
    {
      "type": "Feature",
      "properties": {
        "norad_id": 31089,
        "name": "FENGYUN 1C DEB",
        "group": "fengyun-1c-debris",
        "lat": -71.75082018469456,
        "lon": 161.98722705320833,
        "alt_km": 932.0365133535679,
        "timestamp": "2025-12-17T13:48:37.834974+00:00",
        "meta_object_name": "FENGYUN 1C DEB",
        "meta_object_id": "1999-025BGK",
        "meta_epoch": "2025-12-16T08:54:38.899584",
        "meta_mean_motion": 13.88332505,
        "meta_eccentricity": 0.02061137,
        "meta_inclination": 98.9495,
        "meta_ra_of_asc_node": 132.2833,
        "meta_arg_of_pericenter": 201.7776,
        "meta_mean_anomaly": 186.7705,
        "meta_ephemeris_type": 0,
        "meta_classification_type": "U",
        "meta_norad_cat_id": 31089,
        "meta_element_set_no": 999,
        "meta_rev_at_epoch": 68110,
        "meta_bstar": 0.00075252237,
        "meta_mean_motion_dot": 1.025e-05,
        "meta_mean_motion_ddot": 0,
        "tle_line1": "1 31089U 99025BGK 25350.37128356  .00001025  00000+0  75252-3 0  9997",
        "tle_line2": "2 31089  98.9495 132.2833 0206113 201.7776 186.7705 13.88332505681100"
      },
      "geometry": {
        "type": "Point",
        "coordinates": [
          161.98722705320833,
          -71.75082018469456
        ]
      }
    },
    {
      "type": "Feature",
      "properties": {
        "norad_id": 31090,
        "name": "FENGYUN 1C DEB",
        "group": "fengyun-1c-debris",
        "lat": 5.172340429706216,
        "lon": 95.82973362790504,
        "alt_km": 479.32056519432626,
        "timestamp": "2025-12-17T13:48:37.834984+00:00",
        "meta_object_name": "FENGYUN 1C DEB",
        "meta_object_id": "1999-025BGL",
        "meta_epoch": "2025-12-16T19:00:00.985248",
        "meta_mean_motion": 15.33862625,
        "meta_eccentricity": 0.00545031,
        "meta_inclination": 98.9821,
        "meta_ra_of_asc_node": 95.6982,
        "meta_arg_of_pericenter": 118.5405,
        "meta_mean_anomaly": 242.1335,
        "meta_ephemeris_type": 0,
        "meta_classification_type": "U",
        "meta_norad_cat_id": 31090,
        "meta_element_set_no": 999,
        "meta_rev_at_epoch": 900,
        "meta_bstar": 0.0013578938,
        "meta_mean_motion_dot": 0.00046784,
        "meta_mean_motion_ddot": 0,
        "tle_line1": "1 31090U 99025BGL 25350.79167807  .00046784  00000+0  13579-2 0  9993",
        "tle_line2": "2 31090  98.9821  95.6982 0054503 118.5405 242.1335 15.33862625  9002"
      },
      "geometry": {
        "type": "Point",
        "coordinates": [
          95.82973362790504,
          5.172340429706216
        ]
      }
    },
    {
      "type": "Feature",
      "properties": {
        "norad_id": 31091,
        "name": "FENGYUN 1C DEB",
        "group": "fengyun-1c-debris",
        "lat": -64.39753217846543,
        "lon": -11.863315119377168,
        "alt_km": 863.92644233599,
        "timestamp": "2025-12-17T13:48:37.834993+00:00",
        "meta_object_name": "FENGYUN 1C DEB",
        "meta_object_id": "1999-025BGM",
        "meta_epoch": "2025-12-16T04:25:39.672480",
        "meta_mean_motion": 13.54151753,
        "meta_eccentricity": 0.02905683,
        "meta_inclination": 99.225,
        "meta_ra_of_asc_node": 327.0124,
        "meta_arg_of_pericenter": 320.2761,
        "meta_mean_anomaly": 37.7416,
        "meta_ephemeris_type": 0,
        "meta_classification_type": "U",
        "meta_norad_cat_id": 31091,
        "meta_element_set_no": 999,
        "meta_rev_at_epoch": 61686,
        "meta_bstar": 0.00074717052,
        "meta_mean_motion_dot": 6.22e-06,
        "meta_mean_motion_ddot": 0,
        "tle_line1": "1 31091U 99025BGM 25350.18448695  .00000622  00000+0  74717-3 0  9997",
        "tle_line2": "2 31091  99.2250 327.0124 0290568 320.2761  37.7416 13.54151753616863"
      },
      "geometry": {
        "type": "Point",
        "coordinates": [
          -11.863315119377168,
          -64.39753217846543
        ]
      }
    },
    {
      "type": "Feature",
      "properties": {
        "norad_id": 31092,
        "name": "FENGYUN 1C DEB",
        "group": "fengyun-1c-debris",
        "lat": 11.474776473587113,
        "lon": -70.70804103219652,
        "alt_km": 904.9665495082281,
        "timestamp": "2025-12-17T13:48:37.835006+00:00",
        "meta_object_name": "FENGYUN 1C DEB",
        "meta_object_id": "1999-025BGN",
        "meta_epoch": "2025-12-16T13:49:22.515456",
        "meta_mean_motion": 13.46540124,
        "meta_eccentricity": 0.03272391,
        "meta_inclination": 99.7209,
        "meta_ra_of_asc_node": 106.3269,
        "meta_arg_of_pericenter": 127.3321,
        "meta_mean_anomaly": 235.8106,
        "meta_ephemeris_type": 0,
        "meta_classification_type": "U",
        "meta_norad_cat_id": 31092,
        "meta_element_set_no": 999,
        "meta_rev_at_epoch": 91933,
        "meta_bstar": 0.001155773,
        "meta_mean_motion_dot": 9.23e-06,
        "meta_mean_motion_ddot": 0,
        "tle_line1": "1 31092U 99025BGN 25350.57595504  .00000923  00000+0  11558-2 0  9990",
        "tle_line2": "2 31092  99.7209 106.3269 0327239 127.3321 235.8106 13.46540124919335"
      },
      "geometry": {
        "type": "Point",
        "coordinates": [
          -70.70804103219652,
          11.474776473587113
        ]
      }
    },
    {
      "type": "Feature",
      "properties": {
        "norad_id": 31093,
        "name": "FENGYUN 1C DEB",
        "group": "fengyun-1c-debris",
        "lat": -13.69548960034866,
        "lon": 8.031975921055214,
        "alt_km": 819.1004222321317,
        "timestamp": "2025-12-17T13:48:37.835015+00:00",
        "meta_object_name": "FENGYUN 1C DEB",
        "meta_object_id": "1999-025BGP",
        "meta_epoch": "2025-12-17T00:41:27.002400",
        "meta_mean_motion": 13.80636694,
        "meta_eccentricity": 0.02082915,
        "meta_inclination": 98.5946,
        "meta_ra_of_asc_node": 189.6464,
        "meta_arg_of_pericenter": 211.5349,
        "meta_mean_anomaly": 147.3184,
        "meta_ephemeris_type": 0,
        "meta_classification_type": "U",
        "meta_norad_cat_id": 31093,
        "meta_element_set_no": 999,
        "meta_rev_at_epoch": 94566,
        "meta_bstar": 0.0003762224,
        "meta_mean_motion_dot": 4.26e-06,
        "meta_mean_motion_ddot": 0,
        "tle_line1": "1 31093U 99025BGP 25351.02878475  .00000426  00000+0  37622-3 0  9992",
        "tle_line2": "2 31093  98.5946 189.6464 0208291 211.5349 147.3184 13.80636694945668"
      },
      "geometry": {
        "type": "Point",
        "coordinates": [
          8.031975921055214,
          -13.69548960034866
        ]
      }
    },
    {
      "type": "Feature",
      "properties": {
        "norad_id": 31094,
        "name": "FENGYUN 1C DEB",
        "group": "fengyun-1c-debris",
        "lat": -29.40475677664121,
        "lon": -135.66433244533846,
        "alt_km": 857.0542000526893,
        "timestamp": "2025-12-17T13:48:37.835025+00:00",
        "meta_object_name": "FENGYUN 1C DEB",
        "meta_object_id": "1999-025BGQ",
        "meta_epoch": "2025-12-17T01:57:41.411520",
        "meta_mean_motion": 14.0206407,
        "meta_eccentricity": 0.01064906,
        "meta_inclination": 98.8568,
        "meta_ra_of_asc_node": 218.8147,
        "meta_arg_of_pericenter": 34.982,
        "meta_mean_anomaly": 325.8282,
        "meta_ephemeris_type": 0,
        "meta_classification_type": "U",
        "meta_norad_cat_id": 31094,
        "meta_element_set_no": 999,
        "meta_rev_at_epoch": 95680,
        "meta_bstar": 0.0013101767,
        "meta_mean_motion_dot": 2.06e-05,
        "meta_mean_motion_ddot": 0,
        "tle_line1": "1 31094U 99025BGQ 25351.08172930  .00002060  00000+0  13102-2 0  9994",
        "tle_line2": "2 31094  98.8568 218.8147 0106490  34.9820 325.8282 14.02064070956802"
      },
      "geometry": {
        "type": "Point",
        "coordinates": [
          -135.66433244533846,
          -29.40475677664121
        ]
      }
    }
  ]
}